{
  "norad_id": 68249,
  "name": "STARLINK-37141",
  "history": [
    {
      "epoch": "2026-03-28T20:00:01.999872Z",
      "apogee_km": 328.6991992903522,
      "perigee_km": 327.4696806515485,
      "latitude_deg": -7.011647953970698,
      "longitude_deg": 85.07259660360886,
      "height_km": 330.01546262598464,
      "semi_major_axis_km": 6706.22143997095,
      "eccentricity": 9.167e-05,
      "inclination_deg": 53.1594,
      "raan_deg": 216.5862,
      "arg_perigee_deg": 65.9684,
      "mean_anomaly_deg": 285.4237,
      "mean_motion_rev_day": 15.8083276
    },
    {
      "epoch": "2026-03-29T04:00:01.999584Z",
      "apogee_km": 328.9268260430799,
      "perigee_km": 327.45679876739996,
      "latitude_deg": 53.312385858947685,
      "longitude_deg": 57.574945007022684,
      "height_km": 334.0083113149375,
      "semi_major_axis_km": 6706.32881240524,
      "eccentricity": 0.0001096,
      "inclination_deg": 53.1596,
      "raan_deg": 214.9134,
      "arg_perigee_deg": 94.3475,
      "mean_anomaly_deg": 355.2023,
      "mean_motion_rev_day": 15.80794795
    },
    {
      "epoch": "2026-03-30T03:54:00.192672Z",
      "apogee_km": 328.63337162648895,
      "perigee_km": 326.9863910724307,
      "latitude_deg": -3.233794957964913e-05,
      "longitude_deg": -36.135721620240396,
      "height_km": 328.7447662740357,
      "semi_major_axis_km": 6705.9468813494595,
      "eccentricity": 0.0001228,
      "inclination_deg": 53.1595,
      "raan_deg": 209.9233,
      "arg_perigee_deg": 91.1908,
      "mean_anomaly_deg": 268.9255,
      "mean_motion_rev_day": 15.80929846
    },
    {
      "epoch": "2026-03-30T05:25:02.887104Z",
      "apogee_km": 328.64225836094465,
      "perigee_km": 327.0774810513676,
      "latitude_deg": 4.3076838091112894e-06,
      "longitude_deg": -59.2759390716195,
      "height_km": 328.53892429012643,
      "semi_major_axis_km": 6705.996869706156,
      "eccentricity": 0.00011667,
      "inclination_deg": 53.1594,
      "raan_deg": 209.6066,
      "arg_perigee_deg": 72.2243,
      "mean_anomaly_deg": 287.8907,
      "mean_motion_rev_day": 15.80912169
    },
    {
      "epoch": "2026-03-30T14:31:15.493152Z",
      "apogee_km": 328.3931576435707,
      "perigee_km": 326.7811015628131,
      "latitude_deg": 1.6957149424649937e-06,
      "longitude_deg": 161.89686669168447,
      "height_km": 328.43716667476855,
      "semi_major_axis_km": 6705.724129603192,
      "eccentricity": 0.0001202,
      "inclination_deg": 53.1598,
      "raan_deg": 207.7058,
      "arg_perigee_deg": 85.1723,
      "mean_anomaly_deg": 274.9437,
      "mean_motion_rev_day": 15.8100862
    },
    {
      "epoch": "2026-03-30T17:33:19.902240Z",
      "apogee_km": 328.5470689195972,
      "perigee_km": 326.9937125316101,
      "latitude_deg": 3.854030617100135e-05,
      "longitude_deg": 115.6199982137527,
      "height_km": 328.59829008781753,
      "semi_major_axis_km": 6705.907390725603,
      "eccentricity": 0.00011582,
      "inclination_deg": 53.1599,
      "raan_deg": 207.0719,
      "arg_perigee_deg": 83.3444,
      "mean_anomaly_deg": 276.7711,
      "mean_motion_rev_day": 15.80943811
    },
    {
      "epoch": "2026-03-31T17:49:58.579968Z",
      "apogee_km": 329.3832319273497,
      "perigee_km": 328.9217704096691,
      "latitude_deg": 1.4973555588882533e-05,
      "longitude_deg": 105.39308699082142,
      "height_km": 330.2789018760958,
      "semi_major_axis_km": 6707.289501168509,
      "eccentricity": 3.44e-05,
      "inclination_deg": 53.1594,
      "raan_deg": 202.0032,
      "arg_perigee_deg": 154.0374,
      "mean_anomaly_deg": 206.0666,
      "mean_motion_rev_day": 15.8045518
    },
    {
      "epoch": "2026-04-01T20:00:01.999008Z",
      "apogee_km": 344.97649569175064,
      "perigee_km": 343.02573121122805,
      "latitude_deg": 51.30471014051642,
      "longitude_deg": 134.80887934410345,
      "height_km": 349.12669167934973,
      "semi_major_axis_km": 6722.1381134514895,
      "eccentricity": 0.0001451,
      "inclination_deg": 53.1596,
      "raan_deg": 196.5654,
      "arg_perigee_deg": 72.0422,
      "mean_anomaly_deg": 4.6454,
      "mean_motion_rev_day": 15.75221443
    },
    {
      "epoch": "2026-04-02T20:00:01.999008Z",
      "apogee_km": 344.4365978885653,
      "perigee_km": 342.97258079040694,
      "latitude_deg": -7.441864932747983,
      "longitude_deg": 54.826409767889125,
      "height_km": 345.91402628946713,
      "semi_major_axis_km": 6721.841589339486,
      "eccentricity": 0.0001089,
      "inclination_deg": 53.1585,
      "raan_deg": 191.5956,
      "arg_perigee_deg": 83.0413,
      "mean_anomaly_deg": 267.8158,
      "mean_motion_rev_day": 15.75325677
    },
    {
      "epoch": "2026-04-02T22:00:01.999584Z",
      "apogee_km": 344.55105268527313,
      "perigee_km": 342.96710509324384,
      "latitude_deg": 51.17999040452463,
      "longitude_deg": 142.10367378313424,
      "height_km": 349.14293283825833,
      "semi_major_axis_km": 6721.896078889258,
      "eccentricity": 0.00011782,
      "inclination_deg": 53.1588,
      "raan_deg": 191.1808,
      "arg_perigee_deg": 73.6645,
      "mean_anomaly_deg": 30.0556,
      "mean_motion_rev_day": 15.75306522
    },
    {
      "epoch": "2026-04-03T20:00:01.999008Z",
      "apogee_km": 344.5239438503777,
      "perigee_km": 343.06662893068824,
      "latitude_deg": -53.00398320680157,
      "longitude_deg": -44.12149025741404,
      "height_km": 362.90484939213417,
      "semi_major_axis_km": 6721.932286390533,
      "eccentricity": 0.0001084,
      "inclination_deg": 53.1587,
      "raan_deg": 186.6259,
      "arg_perigee_deg": 70.6937,
      "mean_anomaly_deg": 194.1294,
      "mean_motion_rev_day": 15.75293794
    },
    {
      "epoch": "2026-04-04T20:00:01.999008Z",
      "apogee_km": 344.8362708244322,
      "perigee_km": 343.3251162869219,
      "latitude_deg": 0.7576539479176198,
      "longitude_deg": -132.06428717564503,
      "height_km": 344.9382888592352,
      "semi_major_axis_km": 6722.217693555677,
      "eccentricity": 0.0001124,
      "inclination_deg": 53.1578,
      "raan_deg": 181.6562,
      "arg_perigee_deg": 86.2363,
      "mean_anomaly_deg": 92.708,
      "mean_motion_rev_day": 15.75193471
    },
    {
      "epoch": "2026-04-05T13:30:59.114880Z",
      "apogee_km": 344.6460053865012,
      "perigee_km": 342.8819096992038,
      "latitude_deg": 5.205109962894201e-05,
      "longitude_deg": 141.41463428840981,
      "height_km": 344.2093372137259,
      "semi_major_axis_km": 6721.900957542852,
      "eccentricity": 0.00013122,
      "inclination_deg": 53.1578,
      "raan_deg": 178.0279,
      "arg_perigee_deg": 57.7872,
      "mean_anomaly_deg": 302.3276,
      "mean_motion_rev_day": 15.75304807
    },
    {
      "epoch": "2026-04-05T16:33:41.977152Z",
      "apogee_km": 344.3102144605491,
      "perigee_km": 343.08684039455784,
      "latitude_deg": -4.4455055699516485e-05,
      "longitude_deg": 94.98000581795688,
      "height_km": 344.7830418490106,
      "semi_major_axis_km": 6721.835527427553,
      "eccentricity": 9.1e-05,
      "inclination_deg": 53.1578,
      "raan_deg": 177.397,
      "arg_perigee_deg": 106.0018,
      "mean_anomaly_deg": 254.1102,
      "mean_motion_rev_day": 15.75327808
    },
    {
      "epoch": "2026-04-06T06:15:57.292128Z",
      "apogee_km": 344.36640493757204,
      "perigee_km": 343.1401977088053,
      "latitude_deg": -5.6562832772570526e-05,
      "longitude_deg": -113.98443052543273,
      "height_km": 344.7578494094007,
      "semi_major_axis_km": 6721.890301323188,
      "eccentricity": 9.121e-05,
      "inclination_deg": 53.1577,
      "raan_deg": 174.5592,
      "arg_perigee_deg": 98.3191,
      "mean_anomaly_deg": 261.7932,
      "mean_motion_rev_day": 15.75308553
    },
    {
      "epoch": "2026-04-07T15:45:56.159136Z",
      "apogee_km": 344.7385552570904,
      "perigee_km": 342.9303449370145,
      "latitude_deg": 4.420028040754448e-05,
      "longitude_deg": 95.20727839910099,
      "height_km": 344.65257828146406,
      "semi_major_axis_km": 6721.971450097052,
      "eccentricity": 0.0001345,
      "inclination_deg": 53.1574,
      "raan_deg": 167.6219,
      "arg_perigee_deg": 83.8364,
      "mean_anomaly_deg": 276.281,
      "mean_motion_rev_day": 15.75280027
    },
    {
      "epoch": "2026-04-08T14:36:21.865824Z",
      "apogee_km": 344.4799180712007,
      "perigee_km": 342.94773939329934,
      "latitude_deg": -4.749222183216562e-05,
      "longitude_deg": 106.93237105924057,
      "height_km": 344.52411482881183,
      "semi_major_axis_km": 6721.85082873225,
      "eccentricity": 0.00011397,
      "inclination_deg": 53.1569,
      "raan_deg": 162.8922,
      "arg_perigee_deg": 82.1092,
      "mean_anomaly_deg": 278.0057,
      "mean_motion_rev_day": 15.75322429
    },
    {
      "epoch": "2026-04-09T14:58:09.624000Z",
      "apogee_km": 344.3375407257945,
      "perigee_km": 343.1222271931747,
      "latitude_deg": 2.1257349040311763e-05,
      "longitude_deg": 95.43726307073962,
      "height_km": 344.67458314113446,
      "semi_major_axis_km": 6721.866883959485,
      "eccentricity": 9.04e-05,
      "inclination_deg": 53.1571,
      "raan_deg": 157.8466,
      "arg_perigee_deg": 92.729,
      "mean_anomaly_deg": 267.3834,
      "mean_motion_rev_day": 15.75316785
    },
    {
      "epoch": "2026-04-10T12:17:14.188992Z",
      "apogee_km": 345.0427120798995,
      "perigee_km": 342.6711926135122,
      "latitude_deg": -5.0316099867682657e-05,
      "longitude_deg": 130.3783901593072,
      "height_km": 344.1543364945263,
      "semi_major_axis_km": 6721.993952346706,
      "eccentricity": 0.0001764,
      "inclination_deg": 53.1569,
      "raan_deg": 153.4323,
      "arg_perigee_deg": 58.6138,
      "mean_anomaly_deg": 301.5054,
      "mean_motion_rev_day": 15.75272117
    },
    {
      "epoch": "2026-04-11T20:15:50.866272Z",
      "apogee_km": 344.5486585653189,
      "perigee_km": 343.0214378759629,
      "latitude_deg": -1.6838456462609386e-05,
      "longitude_deg": 2.790847861299546,
      "height_km": 344.22705327376997,
      "semi_major_axis_km": 6721.922048220641,
      "eccentricity": 0.0001136,
      "inclination_deg": 53.1573,
      "raan_deg": 146.8108,
      "arg_perigee_deg": 51.6485,
      "mean_anomaly_deg": 308.4637,
      "mean_motion_rev_day": 15.75297393
    },
    {
      "epoch": "2026-04-12T09:58:07.100544Z",
      "apogee_km": 345.65928822609385,
      "perigee_km": 342.303741105944,
      "latitude_deg": 1.946953807083231e-05,
      "longitude_deg": 153.8207074507383,
      "height_km": 343.45047817552813,
      "semi_major_axis_km": 6722.118514666019,
      "eccentricity": 0.00024959,
      "inclination_deg": 53.1584,
      "raan_deg": 143.9711,
      "arg_perigee_deg": 30.4436,
      "mean_anomaly_deg": 329.6729,
      "mean_motion_rev_day": 15.75228332
    },
    {
      "epoch": "2026-04-14T13:44:24.552960Z",
      "apogee_km": 344.6506197813096,
      "perigee_km": 342.69860568897184,
      "latitude_deg": 1.089540188196343e-05,
      "longitude_deg": 84.40010326543126,
      "height_km": 343.87825380287876,
      "semi_major_axis_km": 6721.81161273514,
      "eccentricity": 0.0001452,
      "inclination_deg": 53.1581,
      "raan_deg": 133.2494,
      "arg_perigee_deg": 43.1432,
      "mean_anomaly_deg": 316.9702,
      "mean_motion_rev_day": 15.75336215
    },
    {
      "epoch": "2026-04-15T12:34:51.504672Z",
      "apogee_km": 344.60484146434646,
      "perigee_km": 343.06120826783535,
      "latitude_deg": 7.508921449719647e-07,
      "longitude_deg": 96.11965945959064,
      "height_km": 344.8357836995819,
      "semi_major_axis_km": 6721.97002486609,
      "eccentricity": 0.00011482,
      "inclination_deg": 53.157,
      "raan_deg": 128.5193,
      "arg_perigee_deg": 96.497,
      "mean_anomaly_deg": 263.6181,
      "mean_motion_rev_day": 15.75280528
    }
  ]
}